{"type":"FeatureCollection","features":[{"type":"Feature","id":"relation/1702219","properties":{"admin_level":"6","boundary":"administrative","name":"Тирасполь","name:bg":"Тираспол","name:de":"Tiraspol","name:en":"Tiraspol","name:hy":"Տիրասպոլ","name:ka":"ტირასპოლი","name:md":"Тираспол","name:ro":"Tiraspol","name:ru":"Тирасполь","name:uk":"Тирасполь","population":"157917","type":"Point","wikidata":"Q132572","wikipedia":"ru:Тирасполь","id":"relation/1702219","name:":"Тирасполь"},"geometry":{"type":"Point","coordinates":[29.583455400000002,46.8517231]}},{"type":"Feature","id":"relation/2988882","properties":{"addr:city":"Тирасполь","addr:housenumber":"2-В","addr:street":"улица Сакриера","landuse":"industrial","name":"ОАО «Литмаш»","name:de":"Litmasch","name:en":"Litmash","name:md":"Литмаш","name:ro":"Litmaș","name:ru":"ОАО «Литмаш»","name:uk":"ВАТ «Литмаш»","phone":"+373 (533) 9-50-48","type":"Point","website":"http://www.litmash.com","wikidata":"Q16671632","wikipedia":"ru:Литмаш (Тирасполь)","id":"relation/2988882","name:":"ОАО «Литмаш»"},"geometry":{"type":"Point","coordinates":[29.6185003,46.8537309]}},{"type":"Feature","id":"relation/2991611","properties":{"addr:city":"Тирасполь","addr:housenumber":"1","addr:postcode":"3300","addr:street":"улица Сакриера","landuse":"industrial","name":"НП ЗАО «Электромаш»","name:en":"Electromash","name:ro":"Electromaș","name:ru":"НП ЗАО «Электромаш»","name:uk":"НВ ЗАТ «Електромаш»","type":"Point","website":"http://ao-electromash.ru/","wikidata":"Q4530888","wikipedia":"ru:Электромаш","id":"relation/2991611","name:":"НП ЗАО «Электромаш»"},"geometry":{"type":"Point","coordinates":[29.616407069686773,46.857265264228445]}},{"type":"Feature","id":"relation/6256962","properties":{"leisure":"park","name":"Парк культуры и отдыха «Победа»","name:de":"Siegespark","name:en":"Victory Park","name:md":"Паркул чентрал «Виктория»","name:ro":"Parcul central \"Victoria\"","name:ru":"Парк культуры и отдыха «Победа»","name:uk":"Парк культури та відпочинку «Перемога»","type":"Point","wikidata":"Q4345327","wikipedia":"ru:Парк культуры и отдыха «Победа» (Тирасполь)","id":"relation/6256962","name:":"Парк культуры и отдыха «Победа»"},"geometry":{"type":"Point","coordinates":[29.63854625,46.838213249999995]}},{"type":"Feature","id":"relation/6644059","properties":{"highway":"pedestrian","name":"Площадь Суворова","name:de":"Suworow-Platz","name:en":"Suvorov Square","name:md":"Пяца Суворов","name:ro":"Piața Suvorov","name:ru":"Площадь Суворова","name:uk":"площа Суворова","type":"Point","id":"relation/6644059","name:":"Площадь Суворова"},"geometry":{"type":"Point","coordinates":[29.6115124,46.83696965]}},{"type":"Feature","id":"way/82934939","properties":{"leisure":"park","name":"Сквер имени де Волана","name:md":"Скуарул «де Волан»","name:ro":"Scuarul \"de Wollant\"","name:ru":"Сквер имени де Волана","name:uk":"Сквер імені де Волана","wikidata":"Q16698250","wikipedia":"ru:Сквер имени де Волана","id":"way/82934939","type":"Point","name:":"Сквер имени де Волана"},"geometry":{"type":"Point","coordinates":[29.611737183393885,46.835127853227625]}},{"type":"Feature","id":"way/88144117","properties":{"building":"yes","name":"ДСУ","source":"bing","id":"way/88144117","type":"Point","name:":"ДСУ"},"geometry":{"type":"Point","coordinates":[29.616993700000002,46.8526993]}},{"type":"Feature","id":"way/88144272","properties":{"addr:city":"Тирасполь","addr:housenumber":"143","addr:postcode":"3300","addr:street":"улица 9 Января","building":"yes","name":"Мега Дом","name:ro":"Mega Dom","name:ru":"Мега Дом","name:uk":"Мега Дім","shop":"mall","source":"bing","website":"http://mega-dom.md/","id":"way/88144272","type":"Point","name:":"Мега Дом"},"geometry":{"type":"Point","coordinates":[29.632989200982077,46.84354105219659]}},{"type":"Feature","id":"way/164960232","properties":{"addr:city":"Тирасполь","addr:housenumber":"1","addr:postcode":"3300","addr:street":"улица Лермонтова","building":"yes","name":"ОАО «Днестрмебель»","office":"company","website":"http://www.dnestrmebel.com","id":"way/164960232","type":"Point","name:":"ОАО «Днестрмебель»"},"geometry":{"type":"Point","coordinates":[29.639305,46.8433766]}},{"type":"Feature","id":"way/223665477","properties":{"landuse":"commercial","name":"Гаражи Тилур","id":"way/223665477","type":"Point","name:":"Гаражи Тилур"},"geometry":{"type":"Point","coordinates":[29.6371698766107,46.82863181057745]}},{"type":"Feature","id":"way/223721460","properties":{"addr:city":"Тирасполь","addr:housenumber":"38","addr:postcode":"3300","addr:street":"улица Ленина","landuse":"industrial","name":"Квинт","name:de":"Kvint","name:en":"Kvint","name:md":"Квинт","name:ro":"Kvint","name:ru":"Квинт","website":"http://www.kvint.md/","wikidata":"Q3182285","wikipedia":"ru:KVINT","id":"way/223721460","type":"Point","name:":"Квинт"},"geometry":{"type":"Point","coordinates":[29.625804399999996,46.8416366]}},{"type":"Feature","id":"way/224455403","properties":{"addr:city":"Тирасполь","addr:housenumber":"80","addr:postcode":"3300","addr:street":"улица Шевченко","landuse":"industrial","name":"Мебельная фабрика №5","name:ru":"Мебельная фабрика №5","name:uk":"Меблева фабрика №5","id":"way/224455403","type":"Point","name:":"Мебельная фабрика №5"},"geometry":{"type":"Point","coordinates":[29.614245299999997,46.84871]}},{"type":"Feature","id":"way/224482418","properties":{"landuse":"industrial","name":"Завод консервов детского питания ООО «Экспедиция»","name:ro":"SRL \"Expediția\"","name:ru":"Завод консервов детского питания ООО «Экспедиция»","name:uk":"Завод консервів дитячого харчування ТОВ «Експедиція»","id":"way/224482418","type":"Point","name:":"Завод консервов детского питания ООО «Экспедиция»"},"geometry":{"type":"Point","coordinates":[29.607975350000004,46.84958745]}},{"type":"Feature","id":"way/224482420","properties":{"landuse":"industrial","name":"Шериф  ОПТ 2","id":"way/224482420","type":"Point","name:":"Шериф  ОПТ 2"},"geometry":{"type":"Point","coordinates":[29.597191900000002,46.8490591]}},{"type":"Feature","id":"way/224485575","properties":{"addr:city":"Тирасполь","addr:housenumber":"48","addr:postcode":"3300","addr:street":"улица Ленина","barrier":"fence","landuse":"industrial","name":"Консервный завод им. 1 Мая","name:md":"Фабрика де консерве «1 Май»","name:ro":"Fabrica de conserve \"1 Mai\"","name:ru":"Консервный завод им. 1 Мая","name:uk":"Консервний завод ім. 1 Травня","id":"way/224485575","type":"Point","name:":"Консервный завод им. 1 Мая"},"geometry":{"type":"Point","coordinates":[29.6291497,46.8446025]}},{"type":"Feature","id":"way/224485576","properties":{"barrier":"fence","landuse":"retail","name":"Мега Дом","name:ro":"Mega Dom","name:ru":"Мега Дом","name:uk":"Мега Дім","id":"way/224485576","type":"Point","name:":"Мега Дом"},"geometry":{"type":"Point","coordinates":[29.635104310056807,46.84333962999976]}},{"type":"Feature","id":"way/224485577","properties":{"barrier":"fence","landuse":"industrial","name":"ОАО «Днестрмебель»","name:ru":"ОАО «Днестрмебель»","website":"http://www.dnestrmebel.com","id":"way/224485577","type":"Point","name:":"ОАО «Днестрмебель»"},"geometry":{"type":"Point","coordinates":[29.6403349,46.844082]}},{"type":"Feature","id":"way/224485579","properties":{"landuse":"industrial","name":"Склад посуды","name:ru":"Склад посуды","name:uk":"Склад посуду","id":"way/224485579","type":"Point","name:":"Склад посуды"},"geometry":{"type":"Point","coordinates":[29.62435205,46.846594350000004]}},{"type":"Feature","id":"way/224485590","properties":{"landuse":"industrial","name":"Территория МО","id":"way/224485590","type":"Point","name:":"Территория МО"},"geometry":{"type":"Point","coordinates":[29.620316600000002,46.843898949999996]}},{"type":"Feature","id":"way/224485593","properties":{"landuse":"industrial","name":"Тираспольский деревообрабатывающий комбинат","name:md":"Комбинатул де прелукраре а лемнулуй","name:ro":"Combinatul de prelucrare a lemnului din Tiraspol","name:ru":"Тираспольский деревообрабатывающий комбинат","name:uk":"Тираспольський деревообробний комбінат","id":"way/224485593","type":"Point","name:":"Тираспольский деревообрабатывающий комбинат"},"geometry":{"type":"Point","coordinates":[29.618611130092717,46.846735332882645]}},{"type":"Feature","id":"way/224559619","properties":{"landuse":"military","name":"Воинская часть","name:md":"Унитатя милитарэ","name:ro":"Unitatea militară","name:ru":"Воинская часть","name:uk":"Військова частина","id":"way/224559619","type":"Point","name:":"Воинская часть"},"geometry":{"type":"Point","coordinates":[29.614963993243016,46.84577646743324]}},{"type":"Feature","id":"way/224833368","properties":{"landuse":"industrial","name":"Элеватор","name:ru":"Элеватор","name:uk":"Елеватор","id":"way/224833368","type":"Point","name:":"Элеватор"},"geometry":{"type":"Point","coordinates":[29.623154133593655,46.85421554552096]}},{"type":"Feature","id":"way/224897006","properties":{"landuse":"military","name":"В/Ч","id":"way/224897006","type":"Point","name:":"В/Ч"},"geometry":{"type":"Point","coordinates":[29.606819650322116,46.85485280479937]}},{"type":"Feature","id":"way/224941209","properties":{"landuse":"military","name":"В/Ч","id":"way/224941209","type":"Point","name:":"В/Ч"},"geometry":{"type":"Point","coordinates":[29.60391095508444,46.855361668725934]}},{"type":"Feature","id":"way/224941900","properties":{"landuse":"military","name":"В/Ч","id":"way/224941900","type":"Point","name:":"В/Ч"},"geometry":{"type":"Point","coordinates":[29.61066626006106,46.85330590503714]}},{"type":"Feature","id":"way/225210509","properties":{"landuse":"industrial","name":"Котельная","name:md":"Казанӂерия","name:ro":"Cazangeria","name:ru":"Котельная","name:uk":"Котельня","id":"way/225210509","type":"Point","name:":"Котельная"},"geometry":{"type":"Point","coordinates":[29.614001157669392,46.85052538302383]}},{"type":"Feature","id":"way/225616566","properties":{"addr:city":"Тирасполь","addr:housenumber":"42","addr:postcode":"3300","addr:street":"улица 25 Октября","building":"yes","building:levels":"1","name":"Воинская часть","name:md":"Унитатя милитарэ","name:ro":"Unitatea militară","name:ru":"Воинская часть","name:uk":"Військова частина","office":"government","id":"way/225616566","type":"Point","name:":"Воинская часть"},"geometry":{"type":"Point","coordinates":[29.6055044,46.83553145]}},{"type":"Feature","id":"way/230205291","properties":{"landuse":"military","name":"Воинская часть","name:md":"Унитатя милитарэ","name:ro":"Unitatea militară","name:ru":"Воинская часть","name:uk":"Військова частина","id":"way/230205291","type":"Point","name:":"Воинская часть"},"geometry":{"type":"Point","coordinates":[29.608853399999997,46.8444826]}},{"type":"Feature","id":"way/430920105","properties":{"addr:city":"Тирасполь","addr:housenumber":"58","addr:postcode":"3300","addr:street":"улица Профсоюзов","landuse":"industrial","name":"ООО «Анфилада»","name:ro":"Anfilada SRL","name:ru":"ООО «Анфилада»","website":"http://www.anfilada.md","id":"way/430920105","type":"Point","name:":"ООО «Анфилада»"},"geometry":{"type":"Point","coordinates":[29.63815013057612,46.84844257480261]}},{"type":"Feature","id":"way/440687041","properties":{"landuse":"military","name":"В/Ч","id":"way/440687041","type":"Point","name:":"В/Ч"},"geometry":{"type":"Point","coordinates":[29.607371292816353,46.85691619331367]}},{"type":"Feature","id":"way/440687042","properties":{"landuse":"military","name":"В/Ч","id":"way/440687042","type":"Point","name:":"В/Ч"},"geometry":{"type":"Point","coordinates":[29.603390302247366,46.85736281686869]}},{"type":"Feature","id":"way/25480905","properties":{"highway":"primary","maxspeed":"50","name":"улица Мира","name:de":"uliza Mira","name:en":"Mira Street","name:md":"Страда Пэчий","name:ro":"Strada Păcii","name:ru":"улица Мира","name:uk":"вулиця Миру","note":"There is a inbound trolleybus lane here","old_name":"Суклейское шоссе","oneway":"no","trolley_wire":"yes","wikidata":"Q21654639","wikipedia":"ru:Улица Мира (Тирасполь)","id":"way/25480905","name:":"улица Мира"},"geometry":{"type":"LineString","coordinates":[[29.6314536,46.8406554],[29.6320763,46.8402671],[29.6325113,46.8399959],[29.6329701,46.8397098],[29.6331062,46.8396249],[29.6334008,46.8394413],[29.6341608,46.8389674],[29.6344929,46.8387603],[29.6345821,46.8387086]]}},{"type":"Feature","id":"way/26067276","properties":{"highway":"residential","name":"улица Ленина","name:de":"uliza Lenina","name:en":"Lenina Street","name:md":"Страда Ленин","name:ro":"Strada Lenin","name:ru":"улица Ленина","name:uk":"вулиця Леніна","id":"way/26067276","name:":"улица Ленина"},"geometry":{"type":"LineString","coordinates":[[29.6254985,46.8288275],[29.6254877,46.8289541],[29.625477,46.8290794],[29.6254586,46.8292954],[29.6254183,46.8297689],[29.6254139,46.8298129],[29.6254076,46.8298759],[29.6253962,46.82999],[29.6253912,46.8300407],[29.6253504,46.8304508],[29.6252532,46.8311835],[29.6252344,46.8313516],[29.6251991,46.831668]]}},{"type":"Feature","id":"way/26067281","properties":{"highway":"residential","name":"улица Котовского","name:de":"uliza Kotowskogo","name:en":"Kotovskogo Street","name:md":"Страда Котовский","name:ro":"Strada Kotovskii","name:ru":"улица Котовского","name:uk":"вулиця Котовського","id":"way/26067281","name:":"улица Котовского"},"geometry":{"type":"LineString","coordinates":[[29.6204099,46.831329],[29.6203208,46.8321293],[29.6202434,46.832691],[29.6201129,46.833942],[29.6201078,46.8339926],[29.6200664,46.8344008],[29.6200567,46.834497],[29.6199884,46.8351711]]}},{"type":"Feature","id":"way/26067283","properties":{"highway":"residential","maxspeed":"50","name":"улица Луначарского","name:de":"uliza Lunatscharskogo","name:en":"Lunacharskogo Street","name:md":"Страда Луначарский","name:ro":"Strada Lunacearskii","name:ru":"улица Луначарского","name:uk":"вулиця Луначарського","surface":"asphalt","id":"way/26067283","name:":"улица Луначарского"},"geometry":{"type":"LineString","coordinates":[[29.6180332,46.829487],[29.6180698,46.8296263],[29.6180535,46.8299016],[29.6180287,46.830644],[29.6179317,46.8313081],[29.6178216,46.8324653],[29.6178144,46.8325474],[29.617761,46.833111],[29.6176928,46.8338305],[29.6176237,46.8344872],[29.6175629,46.8350655],[29.6174957,46.8357883],[29.6174625,46.8361118],[29.617456,46.8361945],[29.6174317,46.8363984],[29.6174299,46.8364246],[29.6174125,46.8366695],[29.6173395,46.8375133],[29.6173093,46.8378418],[29.617278,46.8381814],[29.6172361,46.8388315]]}},{"type":"Feature","id":"way/26067285","properties":{"highway":"residential","maxspeed":"50","name":"улица Восстания","name:de":"uliza Wosstanija","name:en":"Vosstaniya Street","name:md":"Страда Рэскоалей","name:ro":"Strada Răscoalei","name:ru":"улица Восстания","name:uk":"вулиця Повстання","surface":"asphalt","id":"way/26067285","name:":"улица Восстания"},"geometry":{"type":"LineString","coordinates":[[29.6153242,46.8337214],[29.6157896,46.8337428],[29.6160216,46.8337526],[29.6164154,46.8337717],[29.6176928,46.8338305],[29.6201129,46.833942],[29.6202421,46.833948],[29.6208305,46.8339751],[29.622444,46.8340495],[29.6239654,46.8341196],[29.6242446,46.8341324],[29.6249982,46.8341668],[29.6252101,46.8341769],[29.6258123,46.8342047],[29.6268085,46.8342506],[29.6273712,46.8342765],[29.6275655,46.8342854],[29.6279062,46.8343011],[29.628723,46.8343388],[29.6297405,46.8343856],[29.6312819,46.8344572],[29.631513,46.8344669],[29.6322353,46.8345006]]}},{"type":"Feature","id":"way/26067287","properties":{"highway":"residential","maxspeed":"60","name":"улица Шевченко","name:de":"uliza Schewtschenko","name:en":"Shevchenko Street","name:md":"Страда Шевченко","name:ro":"Strada Șevcenco","name:ru":"улица Шевченко","name:uk":"вулиця Шевченка","ref":"M4","surface":"asphalt","id":"way/26067287","name:":"улица Шевченко"},"geometry":{"type":"LineString","coordinates":[[29.6153242,46.8337214],[29.6153076,46.8339399],[29.6152306,46.8349558],[29.6151864,46.8355008],[29.6151457,46.8360022],[29.6151436,46.8361022]]}},{"type":"Feature","id":"way/26074878","properties":{"highway":"residential","name":"переулок Чкалова","name:de":"pereulok Tschkalowa","name:en":"Chkalova Lane","name:md":"Страдела Чкалов","name:ro":"Stradela Cikalov","name:ru":"переулок Чкалова","name:uk":"провулок Чкалова","id":"way/26074878","name:":"переулок Чкалова"},"geometry":{"type":"LineString","coordinates":[[29.6096442,46.8384468],[29.6093464,46.8396909],[29.6093331,46.8397779],[29.6092249,46.8409524],[29.6091024,46.8424092],[29.6090644,46.8427394],[29.6090411,46.8429757],[29.6089802,46.8435438]]}},{"type":"Feature","id":"way/26074920","properties":{"highway":"residential","maxspeed":"50","name":"улица Ильина","name:ru":"улица Ильина","name:uk":"вулиця Ільїна","id":"way/26074920","name:":"улица Ильина"},"geometry":{"type":"LineString","coordinates":[[29.6216126,46.8508793],[29.6219186,46.8508039],[29.6236102,46.8503794],[29.6248314,46.8500864],[29.6260386,46.849789],[29.6271598,46.8495127],[29.6296384,46.8489021],[29.6305896,46.8486678],[29.6306891,46.8486433]]}},{"type":"Feature","id":"way/26074933","properties":{"highway":"residential","maxspeed":"50","name":"улица Дзержинского","name:md":"Страда Дзержинский","name:ro":"Strada Dzerjinski","name:ru":"улица Дзержинского","name:uk":"вулиця Дзержинського","id":"way/26074933","name:":"улица Дзержинского"},"geometry":{"type":"LineString","coordinates":[[29.630029,46.8501024],[29.6306283,46.8512666],[29.63148,46.852922],[29.632146,46.8542158],[29.6328361,46.8555567],[29.6335158,46.8568772],[29.6341469,46.8581033],[29.6348082,46.8593882],[29.6354683,46.8606705],[29.6367648,46.8631894],[29.6367986,46.863255],[29.636926,46.8635025],[29.6369498,46.8635487],[29.6370736,46.8637892],[29.6372107,46.8640555]]}},{"type":"Feature","id":"way/26082007","properties":{"highway":"residential","maxspeed":"50","name":"улица Якира","name:md":"Страда Якир","name:ro":"Strada Iachir","name:ru":"улица Якира","name:uk":"вулиця Якіра","id":"way/26082007","name:":"улица Якира"},"geometry":{"type":"LineString","coordinates":[[29.6248314,46.8500864],[29.6260457,46.8523882],[29.6269152,46.8540363],[29.6275926,46.8553203],[29.6283011,46.8566632]]}},{"type":"Feature","id":"way/26082009","properties":{"highway":"residential","maxspeed":"50","name":"улица Петровского","name:md":"Страда Петровский","name:ro":"Strada Petrovskii","name:ru":"улица Петровского","name:uk":"вулиця Петровського","id":"way/26082009","name:":"улица Петровского"},"geometry":{"type":"LineString","coordinates":[[29.6236102,46.8503794],[29.6237951,46.8507361],[29.6248045,46.8526841],[29.62566,46.854335],[29.6263259,46.8556199],[29.6270401,46.8569754],[29.6276971,46.8582657],[29.6283444,46.8595147],[29.629009,46.860797],[29.6296595,46.8620522],[29.629963,46.8626385],[29.6301199,46.8629405],[29.6302968,46.8632819]]}},{"type":"Feature","id":"way/26082022","properties":{"highway":"residential","maxspeed":"50","name":"Индустриальная улица","name:md":"Страда Индустриалэ","name:ro":"Strada Industrială","name:ru":"Индустриальная улица","name:uk":"Індустріальна вулиця","id":"way/26082022","name:":"Индустриальная улица"},"geometry":{"type":"LineString","coordinates":[[29.6260386,46.849789],[29.6272393,46.8520961],[29.6280988,46.8537474],[29.6287691,46.855035],[29.6294684,46.8563784],[29.6301487,46.8576853],[29.6307933,46.8589235],[29.6314608,46.8602059]]}},{"type":"Feature","id":"way/26420772","properties":{"bridge":"yes","highway":"trunk","maxspeed":"50","name":"улица Шевченко","name:de":"uliza Schewtschenko","name:en":"Shevchenko Street","name:md":"Страда Шевченко","name:ro":"Strada Șevcenco","name:ru":"улица Шевченко","name:uk":"вулиця Шевченка","ref":"M4","id":"way/26420772","name:":"улица Шевченко"},"geometry":{"type":"LineString","coordinates":[[29.6122436,46.852685],[29.6117822,46.854666]]}},{"type":"Feature","id":"way/28655451","properties":{"bridge":"yes","highway":"trunk","layer":"1","maxspeed":"50","name":"улица Шевченко","name:de":"uliza Schewtschenko","name:en":"Shevchenko Street","name:md":"Страда Шевченко","name:ro":"Strada Șevcenco","name:ru":"улица Шевченко","name:uk":"вулиця Шевченка","ref":"M4","id":"way/28655451","name:":"улица Шевченко"},"geometry":{"type":"LineString","coordinates":[[29.6127949,46.8500111],[29.6122436,46.852685]]}},{"type":"Feature","id":"way/32783633","properties":{"highway":"secondary","name":"улица 25 Октября","name:md":"Страда 25 Октомбрие","name:ro":"Strada 25 Octombrie","name:ru":"улица 25 Октября","name:uk":"вулиця 25 Жовтня","oneway":"yes","wikidata":"Q4471047","wikipedia":"ru:Улица 25 Октября (Тирасполь)","id":"way/32783633","name:":"улица 25 Октября"},"geometry":{"type":"LineString","coordinates":[[29.6151436,46.8361022],[29.6144423,46.8362467]]}},{"type":"Feature","id":"way/32783634","properties":{"highway":"secondary","maxspeed":"60","name":"улица 25 Октября","name:md":"Страда 25 Октомбрие","name:ro":"Strada 25 Octombrie","name:ru":"улица 25 Октября","name:uk":"вулиця 25 Жовтня","oneway":"yes","surface":"asphalt","wikidata":"Q4471047","wikipedia":"ru:Улица 25 Октября (Тирасполь)","id":"way/32783634","name:":"улица 25 Октября"},"geometry":{"type":"LineString","coordinates":[[29.6074077,46.8357973],[29.6077207,46.8357586],[29.6080341,46.8357199],[29.6095434,46.8357971],[29.6097887,46.8358097],[29.6117665,46.8359109],[29.612702,46.8359587],[29.6143264,46.8360527],[29.6143706,46.8360553],[29.6144546,46.836065],[29.6151436,46.8361022]]}},{"type":"Feature","id":"way/32783635","properties":{"highway":"secondary","maxspeed":"50","name":"улица 25 Октября","name:md":"Страда 25 Октомбрие","name:ro":"Strada 25 Octombrie","name:ru":"улица 25 Октября","name:uk":"вулиця 25 Жовтня","oneway":"yes","surface":"asphalt","id":"way/32783635","name:":"улица 25 Октября"},"geometry":{"type":"LineString","coordinates":[[29.6151436,46.8361022],[29.615237,46.8361037]]}},{"type":"Feature","id":"way/32784757","properties":{"highway":"tertiary","name":"улица Сакриера","name:ro":"str. Sacrier","name:ru":"улица Сакриера","name:uk":"вулиця Сакрієра","id":"way/32784757","name:":"улица Сакриера"},"geometry":{"type":"LineString","coordinates":[[29.6116557,46.8553077],[29.6118612,46.8553287],[29.6136277,46.855509],[29.6223278,46.8564419],[29.6228301,46.8564756]]}},{"type":"Feature","id":"way/32785012","properties":{"highway":"residential","maxspeed":"70","name":"улица Старого","name:md":"Страда Старый","name:ro":"Strada Starîi","name:ru":"улица Старого","name:uk":"вулиця Старого","id":"way/32785012","name:":"улица Старого"},"geometry":{"type":"LineString","coordinates":[[29.6271598,46.8495127],[29.6283664,46.8518202],[29.6292298,46.8534713],[29.6299033,46.8547591],[29.6306051,46.856101],[29.6312904,46.8574112],[29.6319351,46.8586443],[29.6326055,46.8599262],[29.6332698,46.8611963],[29.6336004,46.8618282],[29.6339227,46.8624446],[29.6345785,46.8636983],[29.6351302,46.8647531],[29.6351785,46.8648454],[29.6354949,46.8654504],[29.6357272,46.8658945]]}},{"type":"Feature","id":"way/40491384","properties":{"highway":"tertiary","maxspeed":"50","name":"бульвар Гагарина","name:md":"Булевардул Гагарин","name:ro":"Bulevardul Gagarin","name:ru":"бульвар Гагарина","name:uk":"бульвар Гагаріна","oneway":"yes","surface":"asphalt","id":"way/40491384","name:":"бульвар Гагарина"},"geometry":{"type":"LineString","coordinates":[[29.6306404,46.8406254],[29.6307225,46.8397942],[29.6307366,46.8396514],[29.6307557,46.8394577],[29.6307654,46.8393599],[29.6308143,46.8389056],[29.6308532,46.8385434],[29.630935,46.8377824],[29.6309998,46.8371798],[29.6310123,46.8370634],[29.6310256,46.8369297],[29.6310338,46.8368477],[29.6310934,46.8362636],[29.6310972,46.8362264],[29.6311266,46.8359383],[29.6311378,46.8358284],[29.631162,46.8355919],[29.6312489,46.8347412],[29.6312622,46.8346105],[29.6312819,46.8344572]]}},{"type":"Feature","id":"way/40491466","properties":{"highway":"tertiary","maxspeed":"50","name":"улица 9 Января","name:md":"Страда 9 Януарие","name:ro":"Strada 9 Ianuarie","name:ru":"улица 9 Января","name:uk":"вулиця 9 Січня","id":"way/40491466","name:":"улица 9 Января"},"geometry":{"type":"LineString","coordinates":[[29.6331234,46.8424127],[29.6323008,46.8424871],[29.6316886,46.8425425],[29.6304567,46.842654],[29.6292088,46.8427363],[29.6282237,46.8427996],[29.6269473,46.8427847],[29.6252686,46.8427736],[29.6246489,46.8427917],[29.6243515,46.8428076],[29.6229152,46.8428162],[29.6224763,46.8428188],[29.6217467,46.8428151],[29.6201967,46.8427569],[29.6192473,46.8427176],[29.6174436,46.8426236],[29.6168757,46.842594],[29.616265,46.8425687],[29.6146924,46.8425036],[29.6144835,46.8424949],[29.6135444,46.8424718],[29.61231,46.8424415],[29.6122657,46.842441],[29.6102245,46.8424163],[29.6092057,46.8424099],[29.6091024,46.8424092]]}},{"type":"Feature","id":"way/40491467","properties":{"highway":"residential","name":"улица Мира","name:de":"uliza Mira","name:en":"Mira Street","name:md":"Страда Пэчий","name:ro":"Strada Păcii","name:ru":"улица Мира","name:uk":"вулиця Миру","oneway":"yes","wikidata":"Q21654639","wikipedia":"ru:Улица Мира (Тирасполь)","id":"way/40491467","name:":"улица Мира"},"geometry":{"type":"LineString","coordinates":[[29.6314536,46.8406554],[29.6306492,46.8411894],[29.630097,46.841556],[29.6299866,46.8416293],[29.629529,46.8419331],[29.6286872,46.8424919],[29.6282237,46.8427996]]}},{"type":"Feature","id":"way/41309496","properties":{"highway":"residential","name":"улица Котовского","name:de":"uliza Kotowskogo","name:en":"Kotovskogo Street","name:md":"Страда Котовский","name:ro":"Strada Kotovskii","name:ru":"улица Котовского","name:uk":"вулиця Котовського","oneway":"no","surface":"asphalt","id":"way/41309496","name:":"улица Котовского"},"geometry":{"type":"LineString","coordinates":[[29.6198418,46.8364009],[29.6198292,46.8365105],[29.6197917,46.8368423],[29.6197664,46.8371539],[29.6197293,46.8376584],[29.6196283,46.838925],[29.6196248,46.8390788],[29.619522,46.8401507],[29.6195095,46.8402674],[29.6193802,46.8414761],[29.6193683,46.8415874],[29.6192473,46.8427176]]}},{"type":"Feature","id":"way/41309500","properties":{"highway":"residential","int_name":"str. Gor'kogo","maxspeed":"50","name":"улица Горького","name:de":"uliza Gorkogo","name:en":"Gorkogo Street","name:md":"Страда Горкий","name:ro":"Strada Gorkii","name:ru":"улица Горького","name:uk":"вулиця Горького","surface":"asphalt","id":"way/41309500","name:":"улица Горького"},"geometry":{"type":"LineString","coordinates":[[29.6178144,46.8325474],[29.6192609,46.8326328],[29.6194051,46.8326413],[29.6202434,46.832691],[29.622559,46.8328103],[29.6244906,46.8329195],[29.6246379,46.8329266],[29.6250959,46.8329516],[29.6261797,46.8330096],[29.62749,46.8330797],[29.6298379,46.8331912],[29.6323042,46.8333133],[29.6333801,46.8333624],[29.6338638,46.8333845],[29.634293,46.8334041],[29.6346011,46.8334181],[29.6347382,46.8334158]]}},{"type":"Feature","id":"way/41309501","properties":{"highway":"residential","name":"улица Восстания","name:de":"uliza Wosstanija","name:en":"Vosstaniya Street","name:md":"Страда Рэскоалей","name:ro":"Strada Răscoalei","name:ru":"улица Восстания","name:uk":"вулиця Повстання","id":"way/41309501","name:":"улица Восстания"},"geometry":{"type":"LineString","coordinates":[[29.6322353,46.8345006],[29.6329541,46.8345134],[29.633216,46.8345198],[29.633914,46.8345231],[29.6343419,46.8345345],[29.6345845,46.8344987],[29.6346272,46.8344641]]}},{"type":"Feature","id":"way/41309502","properties":{"highway":"residential","name":"Клинцовский переулок","name:ru":"Клинцовский переулок","name:uk":"Клинцівський провулок","id":"way/41309502","name:":"Клинцовский переулок"},"geometry":{"type":"LineString","coordinates":[[29.6346272,46.8344641],[29.6346975,46.8344108],[29.6362293,46.8334364],[29.6393896,46.8314995]]}},{"type":"Feature","id":"way/41309510","properties":{"highway":"residential","name":"улица Суворова","name:de":"uliza Suworowa","name:en":"Suvorova Street","name:md":"Страда Суворов","name:ro":"Strada Suvorov","name:ru":"улица Суворова","name:uk":"вулиця Суворова","id":"way/41309510","name:":"улица Суворова"},"geometry":{"type":"LineString","coordinates":[[29.6142303,46.8437507],[29.6140421,46.8437433],[29.6131892,46.8437097],[29.613096,46.843706],[29.6123724,46.8436775],[29.6122222,46.8436716],[29.6120902,46.8436663],[29.6117118,46.8436514],[29.6115439,46.8436448],[29.6100755,46.843587],[29.6090535,46.8435467],[29.6089802,46.8435438],[29.6069442,46.8434635],[29.6054053,46.8434029]]}},{"type":"Feature","id":"way/51414883","properties":{"highway":"residential","maxspeed":"10","name":"улица 1 Мая","name:de":"uliza 1 Maja","name:en":"1 Maya Street","name:md":"Страда 1 Май","name:ro":"Strada 1 Mai","name:ru":"улица 1 Мая","name:uk":"вулиця 1 Травня","oneway":"no","id":"way/51414883","name:":"улица 1 Мая"},"geometry":{"type":"LineString","coordinates":[[29.6157839,46.8305387],[29.6162347,46.8304564],[29.6163795,46.8304829],[29.616503,46.8305332],[29.6166473,46.8306254]]}},{"type":"Feature","id":"way/51414912","properties":{"highway":"residential","name":"улица Котовского","name:de":"uliza Kotowskogo","name:en":"Kotovskogo Street","name:md":"Страда Котовский","name:ro":"Strada Kotovskii","name:ru":"улица Котовского","name:uk":"вулиця Котовського","id":"way/51414912","name:":"улица Котовского"},"geometry":{"type":"LineString","coordinates":[[29.6198765,46.8351661],[29.6198629,46.8352988],[29.6197984,46.8359249],[29.6197792,46.8361114],[29.6197619,46.8362797],[29.61975,46.8363947]]}},{"type":"Feature","id":"way/82934869","properties":{"highway":"residential","name":"улица 9 Января","name:md":"Страда 9 Януарие","name:ro":"Strada 9 Ianuarie","name:ru":"улица 9 Января","name:uk":"вулиця 9 Січня","id":"way/82934869","name:":"улица 9 Января"},"geometry":{"type":"LineString","coordinates":[[29.5982678,46.8445947],[29.5983168,46.8446027],[29.5985551,46.8446417],[29.6000165,46.8447027],[29.600085,46.8447059],[29.600789,46.844737],[29.6010737,46.8447879],[29.6012749,46.8449276],[29.6016625,46.8450779],[29.6024357,46.8448953],[29.6026105,46.84483],[29.6037891,46.8443546],[29.6040897,46.8441891],[29.6046563,46.8438617],[29.605167,46.8435489],[29.6054053,46.8434029],[29.6055486,46.8432247],[29.6062323,46.8427596]]}},{"type":"Feature","id":"way/82934949","properties":{"highway":"residential","is_in":"Tiraspol","maxspeed":"10","name":"переулок Крылова","name:de":"pereulok Krylowa","name:en":"Krylova Street","name:md":"Страдела Крылов","name:ro":"Stradela Krîlov","name:ru":"переулок Крылова","name:uk":"провулок Крилова","id":"way/82934949","name:":"переулок Крылова"},"geometry":{"type":"LineString","coordinates":[[29.6038255,46.8394286],[29.603816,46.8395266],[29.6034691,46.8402995],[29.6033687,46.8404275],[29.6030995,46.8407362]]}},{"type":"Feature","id":"way/82934976","properties":{"highway":"residential","is_in":"Tiraspol","name":"улица Ткаченко","name:md":"стр. Ткаченко","name:ro":"str. Tcacenco","name:ru":"улица Ткаченко","name:uk":"вулиця Ткаченка","id":"way/82934976","name:":"улица Ткаченко"},"geometry":{"type":"LineString","coordinates":[[29.6055486,46.8432247],[29.6043995,46.8424708]]}},{"type":"Feature","id":"way/82934982","properties":{"highway":"residential","is_in":"Tiraspol","name":"улица 9 Января","name:ru":"улица 9 Января","name:uk":"вулиця 9 Січня","id":"way/82934982","name:":"улица 9 Января"},"geometry":{"type":"LineString","coordinates":[[29.6037891,46.8443546],[29.6033923,46.8439607],[29.6027628,46.8433067]]}},{"type":"Feature","id":"way/89871585","properties":{"highway":"residential","is_in":"Tiraspol","maxspeed":"30","name":"улица Чехова","name:md":"стр. Чехов","name:ro":"str. Cehov","name:ru":"улица Чехова","name:uk":"вулиця Чехова","id":"way/89871585","name:":"улица Чехова"},"geometry":{"type":"LineString","coordinates":[[29.6404439,46.8592825],[29.639837,46.8581378],[29.6394626,46.8574316],[29.6391677,46.8568754],[29.6388704,46.8563145],[29.6384756,46.8555698]]}},{"type":"Feature","id":"way/113773971","properties":{"highway":"tertiary","maxspeed":"50","name":"улица 25 Октября","name:md":"Страда 25 Октомбрие","name:ro":"Strada 25 Octombrie","name:ru":"улица 25 Октября","name:uk":"вулиця 25 Жовтня","old_name:1792-1881":"Почтовая улица","old_name:1881-1921":"Покровская улица","oneway":"yes","surface":"asphalt","trolley_wire":"yes","wikidata":"Q4471047","wikipedia":"ru:Улица 25 Октября (Тирасполь)","id":"way/113773971","name:":"улица 25 Октября"},"geometry":{"type":"LineString","coordinates":[[29.6345821,46.8387086],[29.6337879,46.8380649],[29.6336997,46.8379959],[29.6336516,46.8379582],[29.6330476,46.8374855],[29.6328106,46.8373001],[29.6327776,46.8372743],[29.632563,46.8371064],[29.6324242,46.8369978]]}},{"type":"Feature","id":"way/125865714","properties":{"highway":"residential","maxspeed":"50","name":"улица Маяковского","name:de":"uliza Majakowskogo","name:en":"Mayakovskogo Street","name:md":"Страда Маяковский","name:ro":"Strada Maiacovschii","name:ru":"улица Маяковского","name:uk":"вулиця Маяковського","id":"way/125865714","name:":"улица Маяковского"},"geometry":{"type":"LineString","coordinates":[[29.6289272,46.850467],[29.6294859,46.8515462],[29.6303418,46.8531998],[29.6310102,46.854491],[29.6317048,46.8558327],[29.6323859,46.8571483],[29.6330225,46.8583783],[29.6336871,46.859662],[29.6343479,46.8609385],[29.6356481,46.8634498]]}},{"type":"Feature","id":"way/133137748","properties":{"highway":"secondary","maxspeed":"50","name":"улица Шевченко","name:de":"uliza Schewtschenko","name:en":"Shevchenko Street","name:md":"Страда Шевченко","name:ro":"Strada Șevcenco","name:ru":"улица Шевченко","name:uk":"вулиця Шевченка","ref":"M4","surface":"asphalt","trolley_wire":"yes","id":"way/133137748","name:":"улица Шевченко"},"geometry":{"type":"LineString","coordinates":[[29.6150972,46.836434],[29.6150942,46.8364551],[29.6149579,46.8374065],[29.6148475,46.8387105]]}},{"type":"Feature","id":"way/133137749","properties":{"highway":"primary","maxspeed":"60","name":"улица Карла Либкнехта","name:de":"uliza Karla Libknechta","name:en":"Karla Libknekhta Street","name:md":"Страда Карл Либкнехт","name:ro":"Strada Karl Liebknecht","name:ru":"улица Карла Либкнехта","name:uk":"вулиця Карла Лібкнехта","old_name":"Ремесленная улица","ref":"R26","surface":"asphalt","trolley_wire":"yes","wikidata":"Q4472366","wikipedia":"ru:Улица Карла Либкнехта (Тирасполь)","id":"way/133137749","name:":"улица Карла Либкнехта"},"geometry":{"type":"LineString","coordinates":[[29.6147095,46.8399704],[29.6171374,46.8400757],[29.619522,46.8401507],[29.620546,46.8402016],[29.6213979,46.8402455],[29.6219551,46.8402742],[29.6223142,46.8402906],[29.6233882,46.8403475],[29.6240982,46.840375],[29.624658,46.8403967]]}},{"type":"Feature","id":"way/133137752","properties":{"highway":"secondary","maxspeed":"60","name":"улица Шевченко","name:de":"uliza Schewtschenko","name:en":"Shevchenko Street","name:md":"Страда Шевченко","name:ro":"Strada Șevcenco","name:ru":"улица Шевченко","name:uk":"вулиця Шевченка","ref":"M4","surface":"asphalt","trolley_wire":"yes","id":"way/133137752","name:":"улица Шевченко"},"geometry":{"type":"LineString","coordinates":[[29.6148475,46.8387105],[29.6147095,46.8399704]]}},{"type":"Feature","id":"way/133137753","properties":{"highway":"secondary","maxspeed":"50","name":"улица 25 Октября","name:md":"Страда 25 Октомбрие","name:ro":"Strada 25 Octombrie","name:ru":"улица 25 Октября","name:uk":"вулиця 25 Жовтня","wikidata":"Q4471047","wikipedia":"ru:Улица 25 Октября (Тирасполь)","id":"way/133137753","name:":"улица 25 Октября"},"geometry":{"type":"LineString","coordinates":[[29.5977359,46.8353409],[29.6008324,46.8355034],[29.6009209,46.8355052],[29.603033,46.8356041],[29.605385,46.8357143],[29.6074077,46.8357973]]}},{"type":"Feature","id":"way/133137756","properties":{"highway":"secondary","maxspeed":"60","name":"улица 25 Октября","name:md":"Страда 25 Октомбрие","name:ro":"Strada 25 Octombrie","name:ru":"улица 25 Октября","name:uk":"вулиця 25 Жовтня","oneway":"yes","surface":"asphalt","wikidata":"Q4471047","wikipedia":"ru:Улица 25 Октября (Тирасполь)","id":"way/133137756","name:":"улица 25 Октября"},"geometry":{"type":"LineString","coordinates":[[29.6144423,46.8362467],[29.6126899,46.8361542],[29.6117476,46.8361073],[29.6097654,46.8360087],[29.6080186,46.8359218],[29.607803,46.8358779],[29.6077103,46.835859],[29.6074077,46.8357973]]}},{"type":"Feature","id":"way/133137758","properties":{"highway":"trunk","maxspeed":"50","name":"улица Шевченко","name:de":"uliza Schewtschenko","name:en":"Shevchenko Street","name:md":"Страда Шевченко","name:ro":"Strada Șevcenco","name:ru":"улица Шевченко","name:uk":"вулиця Шевченка","ref":"M4","surface":"asphalt","trolley_wire":"yes","id":"way/133137758","name:":"улица Шевченко"},"geometry":{"type":"LineString","coordinates":[[29.6147095,46.8399704],[29.6147004,46.8400532],[29.6145997,46.8411832],[29.6144835,46.8424949],[29.6142303,46.8437507],[29.6141373,46.844212],[29.6140102,46.8448419],[29.6138499,46.8455551],[29.6138428,46.8455845],[29.6136409,46.8464834]]}},{"type":"Feature","id":"way/133260952","properties":{"highway":"secondary","maxspeed":"70","name":"улица Шевченко","name:de":"uliza Schewtschenko","name:en":"Shevchenko Street","name:md":"Страда Шевченко","name:ro":"Strada Șevcenco","name:ru":"улица Шевченко","name:uk":"вулиця Шевченка","ref":"M4","surface":"asphalt","id":"way/133260952","name:":"улица Шевченко"},"geometry":{"type":"LineString","coordinates":[[29.6151436,46.8361022],[29.6151147,46.8362921],[29.6150972,46.836434]]}},{"type":"Feature","id":"way/133296547","properties":{"highway":"primary","maxspeed":"50","name":"улица Карла Либкнехта","name:de":"uliza Karla Libknechta","name:en":"Karla Libknekhta Street","name:md":"Страда Карл Либкнехт","name:ro":"Strada Karl Liebknecht","name:ru":"улица Карла Либкнехта","name:uk":"вулиця Карла Лібкнехта","ref":"R26","surface":"asphalt","trolley_wire":"yes","wikidata":"Q4472366","wikipedia":"ru:Улица Карла Либкнехта (Тирасполь)","id":"way/133296547","name:":"улица Карла Либкнехта"},"geometry":{"type":"LineString","coordinates":[[29.624658,46.8403967],[29.6251676,46.8404176],[29.6272495,46.8405028],[29.6278576,46.8405277],[29.6283096,46.8405532],[29.6294739,46.8405977],[29.6306404,46.8406254],[29.6308831,46.8406344],[29.6314536,46.8406554]]}},{"type":"Feature","id":"way/133296548","properties":{"highway":"residential","maxspeed":"50","name":"улица Ленина","name:de":"uliza Lenina","name:en":"Lenina Street","name:md":"Страда Ленин","name:ro":"Strada Lenin","name:ru":"улица Ленина","name:uk":"вулиця Леніна","trolley_wire":"yes","id":"way/133296548","name:":"улица Ленина"},"geometry":{"type":"LineString","coordinates":[[29.6246455,46.8416423],[29.6246489,46.8427917],[29.624677,46.842895],[29.6248827,46.843652],[29.6248988,46.8437156],[29.6249583,46.8439497],[29.625258,46.8451416],[29.6254164,46.8452546],[29.6255742,46.8453109],[29.6262163,46.8454928],[29.6266394,46.8456262],[29.6283494,46.8461653],[29.6294758,46.8465263],[29.6296042,46.8465675]]}},{"type":"Feature","id":"way/133296549","properties":{"highway":"residential","maxspeed":"50","name":"улица Ленина","name:de":"uliza Lenina","name:md":"Страда Ленин","name:ro":"Strada Lenin","name:ru":"улица Ленина","name:uk":"вулиця Леніна","trolley_wire":"yes","id":"way/133296549","name:":"улица Ленина"},"geometry":{"type":"LineString","coordinates":[[29.624658,46.8403967],[29.6246455,46.8416423]]}},{"type":"Feature","id":"way/133320724","properties":{"highway":"primary","maxspeed":"50","name":"улица Мира","name:de":"uliza Mira","name:en":"Mira Street","name:md":"Страда Пэчий","name:ro":"Strada Păcii","name:ru":"улица Мира","name:uk":"вулиця Миру","note":"There is a inbound trolleybus lane here","old_name":"Суклейское шоссе","oneway":"yes","surface":"asphalt","trolley_wire":"yes","wikidata":"Q21654639","wikipedia":"ru:Улица Мира (Тирасполь)","id":"way/133320724","name:":"улица Мира"},"geometry":{"type":"LineString","coordinates":[[29.6345821,46.8387086],[29.6346718,46.8386506],[29.6364258,46.8375995],[29.6370464,46.8372313],[29.6392307,46.8359353],[29.6400863,46.835404],[29.6403527,46.8352545],[29.6413013,46.8346895],[29.6415485,46.8345423],[29.641637,46.8344896],[29.6425098,46.8339836]]}},{"type":"Feature","id":"way/133322549","properties":{"highway":"secondary","maxspeed":"50","name":"улица 25 Октября","name:md":"Страда 25 Октомбрие","name:ro":"Strada 25 Octombrie","name:ru":"улица 25 Октября","name:uk":"вулиця 25 Жовтня","old_name:1792-1881":"Почтовая улица","old_name:1881-1921":"Покровская улица","oneway":"no","surface":"asphalt","trolley_wire":"yes","wikidata":"Q4471047","wikipedia":"ru:Улица 25 Октября (Тирасполь)","id":"way/133322549","name:":"улица 25 Октября"},"geometry":{"type":"LineString","coordinates":[[29.6248005,46.8366264],[29.624821,46.8366274],[29.6259039,46.8366802],[29.6262101,46.8366951],[29.6264452,46.8367065],[29.6269464,46.8367309],[29.6272138,46.836744],[29.6273912,46.8367526],[29.627853,46.8367751],[29.6281565,46.8367899],[29.6285031,46.8368068]]}},{"type":"Feature","id":"way/133322550","properties":{"highway":"residential","maxspeed":"50","name":"улица Ленина","name:de":"uliza Lenina","name:en":"Lenina Street","name:md":"Страда Ленин","name:ro":"Strada Lenin","name:ru":"улица Ленина","name:uk":"вулиця Леніна","trolley_wire":"yes","id":"way/133322550","name:":"улица Ленина"},"geometry":{"type":"LineString","coordinates":[[29.6248005,46.8366264],[29.6247874,46.8367801],[29.624727,46.8379266],[29.6247258,46.8379941],[29.6246909,46.8391227],[29.6246848,46.8393208],[29.6246785,46.839574],[29.6246593,46.8403448],[29.624658,46.8403967]]}},{"type":"Feature","id":"way/160035394","properties":{"highway":"residential","name":"переулок Горплавни","name:ro":"Stradela Gorplavni","name:ru":"переулок Горплавни","id":"way/160035394","name:":"переулок Горплавни"},"geometry":{"type":"LineString","coordinates":[[29.6166302,46.8310806],[29.6166473,46.8306254],[29.6166889,46.8296671],[29.6166158,46.8295177],[29.6166018,46.8295001],[29.6163864,46.8292301],[29.6155305,46.8284968],[29.6149882,46.8279243],[29.6147998,46.8278202],[29.6138724,46.8273076],[29.6127824,46.8265306],[29.6121344,46.825678],[29.6117052,46.8254798],[29.610991,46.8254044],[29.6095487,46.8252522],[29.6079716,46.8251201],[29.6066949,46.8248925]]}},{"type":"Feature","id":"way/164634321","properties":{"highway":"secondary","name":"улица 25 Октября","name:md":"Страда 25 Октомбрие","name:ro":"Strada 25 Octombrie","name:ru":"улица 25 Октября","name:uk":"вулиця 25 Жовтня","oneway":"yes","wikidata":"Q4471047","wikipedia":"ru:Улица 25 Октября (Тирасполь)","id":"way/164634321","name:":"улица 25 Октября"},"geometry":{"type":"LineString","coordinates":[[29.6080186,46.8359218],[29.607949,46.8358487],[29.6079588,46.8357838],[29.6080341,46.8357199]]}},{"type":"Feature","id":"way/164634322","properties":{"highway":"secondary","name":"улица 25 Октября","name:md":"Страда 25 Октомбрие","name:ro":"Strada 25 Octombrie","name:ru":"улица 25 Октября","name:uk":"вулиця 25 Жовтня","oneway":"yes","wikidata":"Q4471047","wikipedia":"ru:Улица 25 Октября (Тирасполь)","id":"way/164634322","name:":"улица 25 Октября"},"geometry":{"type":"LineString","coordinates":[[29.6097887,46.8358097],[29.6098458,46.8358669],[29.6098368,46.8359602],[29.6097654,46.8360087]]}},{"type":"Feature","id":"way/165572953","properties":{"highway":"tertiary","maxspeed":"50","name":"бульвар Гагарина","name:md":"Булевардул Гагарин","name:ro":"Bulevardul Gagarin","name:ru":"бульвар Гагарина","name:uk":"бульвар Гагаріна","oneway":"yes","surface":"asphalt","id":"way/165572953","name:":"бульвар Гагарина"},"geometry":{"type":"LineString","coordinates":[[29.631513,46.8344669],[29.6314925,46.8346198],[29.6314005,46.8356014],[29.6313856,46.8357501],[29.6313764,46.8358422],[29.6313618,46.8359886],[29.6313108,46.8364983],[29.6313029,46.8365769],[29.6312914,46.836692],[29.6312785,46.8368206],[29.6312747,46.8368588],[29.6312644,46.8369413],[29.6312532,46.8370731],[29.6312419,46.8371886],[29.6312353,46.8372562],[29.6311675,46.8379506],[29.6311005,46.8386365],[29.6310291,46.8393669],[29.6310249,46.8394098],[29.6310184,46.839466],[29.6309966,46.8396543],[29.6309953,46.8396653],[29.6309791,46.8398057],[29.6308831,46.8406344]]}},{"type":"Feature","id":"way/166010291","properties":{"highway":"residential","maxspeed":"50","name":"улица Свердлова","name:de":"uliza Swerdlowa","name:en":"Sverdlova Street","name:md":"Страда Свердлов","name:ro":"Strada Sverdlov","name:ru":"улица Свердлова","name:uk":"вулиця Свердлова","surface":"asphalt","id":"way/166010291","name:":"улица Свердлова"},"geometry":{"type":"LineString","coordinates":[[29.6345146,46.8357255],[29.6343716,46.8357197],[29.6337023,46.835693],[29.6318807,46.8356205],[29.6314005,46.8356014],[29.631162,46.8355919],[29.6306829,46.835575],[29.6296568,46.8355389],[29.6293803,46.8355297],[29.6286218,46.8355043],[29.6283664,46.8354958],[29.6282934,46.8354934],[29.6282462,46.8354918],[29.6278211,46.8354742],[29.627621,46.8354659],[29.6254599,46.8353764],[29.624902,46.8353581],[29.623331,46.835294],[29.6232521,46.835291],[29.6223634,46.8352575]]}},{"type":"Feature","id":"way/172452535","properties":{"highway":"residential","maxspeed":"10","name":"переулок Чкалова","name:de":"pereulok Tschkalowa","name:en":"Chkalova Lane","name:md":"Страдела Чкалов","name:ro":"Stradela Cikalov","name:ru":"переулок Чкалова","name:uk":"провулок Чкалова","oneway":"no","id":"way/172452535","name:":"переулок Чкалова"},"geometry":{"type":"LineString","coordinates":[[29.608966,46.8451203],[29.6089542,46.845266],[29.6089113,46.8457963],[29.6089091,46.8458241],[29.6088747,46.8462495],[29.6088536,46.8465702]]}},{"type":"Feature","id":"way/175053952","properties":{"highway":"unclassified","maxspeed":"10","name":"переулок Чкалова","name:de":"pereulok Tschkalowa","name:en":"Chkalova Lane","name:md":"Страдела Чкалов","name:ro":"Stradela Cikalov","name:ru":"переулок Чкалова","name:uk":"провулок Чкалова","oneway":"no","id":"way/175053952","name:":"переулок Чкалова"},"geometry":{"type":"LineString","coordinates":[[29.6089749,46.8450104],[29.608966,46.8451203]]}},{"type":"Feature","id":"way/175053953","properties":{"highway":"residential","maxspeed":"60","name":"переулок Чкалова","name:de":"pereulok Tschkalowa","name:en":"Chkalova Lane","name:md":"Страдела Чкалов","name:ro":"Stradela Cikalov","name:ru":"переулок Чкалова","name:uk":"провулок Чкалова","oneway":"no","id":"way/175053953","name:":"переулок Чкалова"},"geometry":{"type":"LineString","coordinates":[[29.6088536,46.8465702],[29.6088245,46.8468866],[29.6088023,46.847151],[29.6087909,46.8472865],[29.608769,46.8475591],[29.6087624,46.8476433],[29.6087482,46.847824]]}},{"type":"Feature","id":"way/210622939","properties":{"highway":"residential","name":"улица Профсоюзов","name:md":"Страда Синдикателор","name:ro":"Strada Sindicatelor","name:ru":"улица Профсоюзов","name:uk":"вулиця Профспілок","source":"Bing","id":"way/210622939","name:":"улица Профсоюзов"},"geometry":{"type":"LineString","coordinates":[[29.6318853,46.850959],[29.6319807,46.8509368],[29.6337479,46.8505248]]}},{"type":"Feature","id":"way/223107261","properties":{"highway":"residential","is_in":"Tiraspol","name":"переулок Крылова","name:de":"pereulok Krylowa","name:en":"Krylova Lane","name:md":"Страдела Крылов","name:ro":"Stradela Krîlov","name:ru":"переулок Крылова","name:uk":"провулок Крилова","id":"way/223107261","name:":"переулок Крылова"},"geometry":{"type":"LineString","coordinates":[[29.5989973,46.8427808],[29.5988446,46.8424998],[29.5985325,46.8417489]]}},{"type":"Feature","id":"way/223107262","properties":{"highway":"residential","is_in":"Tiraspol","name":"улица Ткаченко","name:de":"uliza Tkatschenko","name:en":"Tkachenko Street","name:md":"Страда Ткаченко","name:ro":"Strada Tcacenco","name:ru":"улица Ткаченко","name:uk":"вулиця Ткаченка","id":"way/223107262","name:":"улица Ткаченко"},"geometry":{"type":"LineString","coordinates":[[29.6066553,46.8413535],[29.6043995,46.8424708],[29.6027628,46.8433067],[29.6010329,46.8441703]]}},{"type":"Feature","id":"way/223107985","properties":{"highway":"primary","maxspeed":"50","name":"улица Карла Либкнехта","name:de":"uliza Karla Libknechta","name:en":"Karla Libknekhta Street","name:md":"Страда Карл Либкнехт","name:ro":"Strada Karl Liebknecht","name:ru":"улица Карла Либкнехта","name:uk":"вулиця Карла Лібкнехта","old_name":"Ремесленная улица","ref":"R26","surface":"asphalt","trolley_wire":"yes","wikidata":"Q4472366","wikipedia":"ru:Улица Карла Либкнехта (Тирасполь)","id":"way/223107985","name:":"улица Карла Либкнехта"},"geometry":{"type":"LineString","coordinates":[[29.6073962,46.839609],[29.6093464,46.8396909],[29.6125306,46.8398377],[29.6147095,46.8399704]]}},{"type":"Feature","id":"way/223145082","properties":{"highway":"footway","name":"улица 9 Января","name:md":"Страда 9 Януарие","name:ro":"Strada 9 Ianuarie","name:ru":"улица 9 Января","name:uk":"вулиця 9 Січня","id":"way/223145082","name:":"улица 9 Января"},"geometry":{"type":"LineString","coordinates":[[29.6062323,46.8427596],[29.6070227,46.8427505]]}},{"type":"Feature","id":"way/223145084","properties":{"highway":"residential","name":"улица 9 Января","name:md":"Страда 9 Януарие","name:ro":"Strada 9 Ianuarie","name:ru":"улица 9 Января","name:uk":"вулиця 9 Січня","id":"way/223145084","name:":"улица 9 Января"},"geometry":{"type":"LineString","coordinates":[[29.6070227,46.8427505],[29.6079891,46.8427541],[29.6090644,46.8427394]]}},{"type":"Feature","id":"way/223273559","properties":{"highway":"residential","maxspeed":"50","name":"улица Профсоюзов","name:md":"Страда Синдикателор","name:ro":"Strada Sindicatelor","name:ru":"улица Профсоюзов","name:uk":"вулиця Профспілок","id":"way/223273559","name:":"улица Профсоюзов"},"geometry":{"type":"LineString","coordinates":[[29.622956,46.8531443],[29.623832,46.8529299],[29.6248045,46.8526841],[29.6260457,46.8523882],[29.6272393,46.8520961],[29.6283664,46.8518202],[29.6294859,46.8515462],[29.6306283,46.8512666],[29.631796,46.8509809],[29.6318853,46.850959]]}},{"type":"Feature","id":"way/223273579","properties":{"highway":"tertiary","maxspeed":"50","name":"улица Сакриера","name:md":"Страда Сакриер","name:ro":"Strada Sacrier","name:ru":"улица Сакриера","name:uk":"вулиця Сакрієра","trolley_wire":"yes","id":"way/223273579","name:":"улица Сакриера"},"geometry":{"type":"LineString","coordinates":[[29.6228301,46.8564756],[29.6244927,46.8560723],[29.6251185,46.8559205],[29.6252289,46.8558937],[29.6263259,46.8556199],[29.6275926,46.8553203],[29.6287691,46.855035],[29.6299033,46.8547591],[29.6310102,46.854491],[29.632146,46.8542158],[29.6334149,46.853908],[29.6338091,46.8538124],[29.6343038,46.8536924],[29.6350489,46.8535116],[29.6359738,46.8532873],[29.6371909,46.852992],[29.6374239,46.8529355],[29.6376363,46.852884],[29.6383465,46.8527117]]}},{"type":"Feature","id":"way/223285160","properties":{"highway":"residential","name":"улица Чехова","name:md":"стр. Чехов","name:ro":"str. Cehov","name:ru":"улица Чехова","name:uk":"вулиця Чехова","id":"way/223285160","name:":"улица Чехова"},"geometry":{"type":"LineString","coordinates":[[29.6384756,46.8555698],[29.6382994,46.8551544],[29.6381965,46.8549518],[29.6380439,46.8546513],[29.6380103,46.854585]]}},{"type":"Feature","id":"way/223512267","properties":{"highway":"primary","maxspeed":"60","name":"улица Карла Либкнехта","name:de":"uliza Karla Libknechta","name:en":"Karla Libknekhta Street","name:md":"Страда Карл Либкнехт","name:ro":"Strada Karl Liebknecht","name:ru":"улица Карла Либкнехта","name:uk":"вулиця Карла Лібкнехта","old_name":"Ремесленная улица","ref":"R26","wikidata":"Q4472366","wikipedia":"ru:Улица Карла Либкнехта (Тирасполь)","id":"way/223512267","name:":"улица Карла Либкнехта"},"geometry":{"type":"LineString","coordinates":[[29.6018509,46.839331],[29.6021225,46.8393449],[29.602585,46.8393708],[29.6038255,46.8394286],[29.6049881,46.8394866],[29.6062744,46.8395513],[29.6063661,46.8395559],[29.6067876,46.8395776],[29.6073962,46.839609]]}},{"type":"Feature","id":"way/223565196","properties":{"highway":"residential","name":"улица 1 Мая","name:de":"uliza 1 Maja","name:en":"1 Maya Street","name:md":"Страда 1 Май","name:ro":"Strada 1 Mai","name:ru":"улица 1 Мая","name:uk":"вулиця 1 Травня","oneway":"yes","id":"way/223565196","name:":"улица 1 Мая"},"geometry":{"type":"LineString","coordinates":[[29.6283203,46.8317912],[29.6282156,46.8317855],[29.6276378,46.8317654],[29.6251991,46.831668]]}},{"type":"Feature","id":"way/223565198","properties":{"highway":"residential","name":"улица 1 Мая","name:de":"uliza 1 Maja","name:en":"1 Maya Street","name:md":"Страда 1 Май","name:ro":"Strada 1 Mai","name:ru":"улица 1 Мая","name:uk":"вулиця 1 Травня","id":"way/223565198","name:":"улица 1 Мая"},"geometry":{"type":"LineString","coordinates":[[29.6283203,46.8317912],[29.629975,46.8318788],[29.6312689,46.8319427],[29.6315641,46.8319573],[29.6317907,46.8319701],[29.6323896,46.8320011],[29.6328675,46.8320244],[29.637178,46.832173]]}},{"type":"Feature","id":"way/224427226","properties":{"highway":"residential","maxspeed":"20","name":"улица Синёва","name:ro":"Strada Siniov","name:ru":"улица Синёва","name:uk":"вулица Синьова","oneway":"no","id":"way/224427226","name:":"улица Синёва"},"geometry":{"type":"LineString","coordinates":[[29.6393626,46.8451087],[29.6391628,46.8446249],[29.6390152,46.8441392],[29.6386752,46.843126],[29.6386495,46.8430494]]}},{"type":"Feature","id":"way/224482421","properties":{"highway":"residential","maxspeed":"70","name":"улица Клары Цеткин","name:md":"Страда Клара Цеткин","name:ro":"Strada Clara Zetkin","name:ru":"улица Клары Цеткин","name:uk":"вулиця Клари Цеткін","id":"way/224482421","name:":"улица Клары Цеткин"},"geometry":{"type":"LineString","coordinates":[[29.5916217,46.8493866],[29.5957246,46.847469],[29.5966137,46.847077],[29.598136,46.8472495],[29.6002182,46.8475311],[29.6009091,46.8475849],[29.6029165,46.8476227],[29.6038649,46.8475999],[29.6046524,46.8476451],[29.6059105,46.8477063],[29.6063938,46.8477217],[29.6073156,46.8477572],[29.6074689,46.8477628],[29.6086608,46.8478197],[29.6087482,46.847824],[29.6094363,46.8478472],[29.6106651,46.8478887],[29.611066,46.8479019],[29.6122246,46.84794],[29.6129865,46.8479642],[29.6133171,46.8479829]]}},{"type":"Feature","id":"way/224485592","properties":{"highway":"service","name":"улица 9 Января","name:md":"Страда 9 Януарие","name:ro":"Strada 9 Ianuarie","name:ru":"улица 9 Января","name:uk":"вулиця 9 Січня","id":"way/224485592","name:":"улица 9 Января"},"geometry":{"type":"LineString","coordinates":[[29.616265,46.8425687],[29.616258,46.8426341],[29.6161282,46.8438444]]}},{"type":"Feature","id":"way/225210507","properties":{"highway":"residential","name":"улица Шевченко","name:md":"Страда Шевченко","name:ro":"Strada Șevcenco","name:ru":"улица Шевченко","name:uk":"вулиця Шевченка","id":"way/225210507","name:":"улица Шевченко"},"geometry":{"type":"LineString","coordinates":[[29.6107063,46.8493122],[29.610398,46.849299],[29.6103553,46.8496423],[29.6119565,46.8497918],[29.6120764,46.8497681],[29.6125662,46.8498018],[29.612608,46.8498047],[29.6125534,46.8500036],[29.6124844,46.8503638],[29.612398,46.850845],[29.6123248,46.851253],[29.6122893,46.8512505],[29.6121953,46.8512438],[29.6118973,46.8512225],[29.610146,46.8511049]]}},{"type":"Feature","id":"way/228646270","properties":{"highway":"residential","name":"улица Луначарского","name:de":"uliza Lunatscharskogo","name:en":"Lunacharskogo Street","name:md":"Страда Луначарский","name:ro":"Strada Lunacearskii","name:ru":"улица Луначарского","name:uk":"вулиця Луначарського","id":"way/228646270","name:":"улица Луначарского"},"geometry":{"type":"LineString","coordinates":[[29.6172361,46.8388315],[29.6171374,46.8400757],[29.6171275,46.840162],[29.6170796,46.8405783],[29.6170014,46.8413291],[29.6168757,46.842594]]}},{"type":"Feature","id":"way/229204679","properties":{"highway":"residential","maxspeed":"60","name":"улица Свердлова","name:de":"uliza Swerdlowa","name:en":"Sverdlova Street","name:md":"Страда Свердлов","name:ro":"Strada Sverdlov","name:ru":"улица Свердлова","name:uk":"вулиця Свердлова","surface":"asphalt","id":"way/229204679","name:":"улица Свердлова"},"geometry":{"type":"LineString","coordinates":[[29.6223634,46.8352575],[29.6216231,46.8352306],[29.6199884,46.8351711],[29.6198765,46.8351661],[29.6175629,46.8350655],[29.6152306,46.8349558],[29.6151109,46.8349502],[29.6149206,46.8349419],[29.6142173,46.8349045],[29.6141547,46.8349011],[29.6137725,46.8348802],[29.6136959,46.8348255]]}},{"type":"Feature","id":"way/230970592","properties":{"highway":"residential","name":"улица 1 Мая","name:de":"uliza 1 Maja","name:en":"1 Maya Street","name:md":"Страда 1 Май","name:ro":"Strada 1 Mai","name:ru":"улица 1 Мая","name:uk":"вулиця 1 Травня","oneway":"no","id":"way/230970592","name:":"улица 1 Мая"},"geometry":{"type":"LineString","coordinates":[[29.6166302,46.8310806],[29.6167283,46.8312086],[29.617242,46.8312511],[29.6179317,46.8313081],[29.6188616,46.8313409],[29.619538,46.8313656],[29.6197119,46.831299],[29.6201446,46.8313129],[29.6204099,46.831329],[29.6210798,46.8313674],[29.6218505,46.8313981],[29.6225215,46.8314326],[29.6226701,46.8315421],[29.6238085,46.8315988],[29.6239034,46.8316035],[29.6251991,46.831668]]}},{"type":"Feature","id":"way/251628054","properties":{"highway":"trunk","name":"улица Шевченко","name:de":"uliza Schewtschenko","name:en":"Shevchenko Street","name:md":"Страда Шевченко","name:ro":"Strada Șevcenco","name:ru":"улица Шевченко","name:uk":"вулиця Шевченка","ref":"M4","id":"way/251628054","name:":"улица Шевченко"},"geometry":{"type":"LineString","coordinates":[[29.6116557,46.8553077],[29.611576,46.8556945],[29.6114709,46.8562042],[29.6113351,46.8568631],[29.611093,46.8579667],[29.6110319,46.8582454],[29.6108839,46.8589226],[29.6107274,46.8597094],[29.6104614,46.860914],[29.6104533,46.8609507],[29.610154,46.8623379]]}},{"type":"Feature","id":"way/251628055","properties":{"highway":"trunk","lanes":"4","lanes:backward":"2","lanes:forward":"2","name":"улица Шевченко","name:de":"uliza Schewtschenko","name:en":"Shevchenko Street","name:md":"Страда Шевченко","name:ro":"Strada Șevcenco","name:ru":"улица Шевченко","name:uk":"вулиця Шевченка","ref":"M4","turn:lanes:backward":"through|through;right","turn:lanes:forward":"through|right","id":"way/251628055","name:":"улица Шевченко"},"geometry":{"type":"LineString","coordinates":[[29.6117822,46.854666],[29.6116557,46.8553077]]}},{"type":"Feature","id":"way/251628793","properties":{"highway":"trunk","lanes":"4","lanes:backward":"2","maxspeed":"50","name":"улица Шевченко","name:de":"uliza Schewtschenko","name:en":"Shevchenko Street","name:md":"Страда Шевченко","name:ro":"Strada Șevcenco","name:ru":"улица Шевченко","name:uk":"вулиця Шевченка","oneway":"no","ref":"M4","turn:lanes:backward":"through|right","id":"way/251628793","name:":"улица Шевченко"},"geometry":{"type":"LineString","coordinates":[[29.6133171,46.8479829],[29.6132532,46.8482323],[29.6131716,46.8484732],[29.6128488,46.849785],[29.6127949,46.8500111]]}},{"type":"Feature","id":"way/295323490","properties":{"highway":"pedestrian","name":"улица Восстания","name:de":"uliza Wosstanija","name:en":"Vosstaniya Street","name:md":"Страда Рэскоалей","name:ro":"Strada Răscoalei","name:ru":"улица Восстания","name:uk":"вулиця Повстання","id":"way/295323490","name:":"улица Восстания"},"geometry":{"type":"LineString","coordinates":[[29.6346272,46.8344641],[29.6347382,46.8334158]]}},{"type":"Feature","id":"way/302937713","properties":{"highway":"residential","is_in":"Tiraspol","maxspeed":"20","name":"переулок Крылова","name:de":"pereulok Krylowa","name:en":"Krylova Street","name:md":"Страдела Крылов","name:ro":"Stradela Krîlov","name:ru":"переулок Крылова","name:uk":"провулок Крилова","id":"way/302937713","name:":"переулок Крылова"},"geometry":{"type":"LineString","coordinates":[[29.6030995,46.8407362],[29.6028088,46.841046],[29.6018826,46.841523],[29.6008949,46.8419656],[29.6007725,46.8420409],[29.600454,46.8421252],[29.5988446,46.8424998],[29.5981818,46.8422866],[29.5980031,46.8422908],[29.5978626,46.8423171],[29.5977246,46.8423559],[29.5972645,46.8425011],[29.5962892,46.8428529]]}},{"type":"Feature","id":"way/323610762","properties":{"highway":"secondary","maxspeed":"50","name":"улица 25 Октября","name:md":"Страда 25 Октомбрие","name:ro":"Strada 25 Octombrie","name:ru":"улица 25 Октября","name:uk":"вулиця 25 Жовтня","old_name:1792-1881":"Почтовая улица","old_name:1881-1921":"Покровская улица","oneway":"no","surface":"asphalt","trolley_wire":"yes","wikidata":"Q4471047","wikipedia":"ru:Улица 25 Октября (Тирасполь)","id":"way/323610762","name:":"улица 25 Октября"},"geometry":{"type":"LineString","coordinates":[[29.6285031,46.8368068],[29.6293067,46.8368459],[29.6300739,46.8368833],[29.6301158,46.8368853],[29.6310256,46.8369297],[29.6311333,46.8369349],[29.6312644,46.8369413],[29.6320265,46.8369784],[29.6324242,46.8369978]]}},{"type":"Feature","id":"way/323823950","properties":{"highway":"residential","maxspeed":"50","name":"улица Синёва","name:ro":"Strada Siniov","name:ru":"улица Синёва","name:uk":"вулица Синьова","old_name":"Лучевой проезд","old_name:ru":"Лучевой проезд","oneway":"no","surface":"asphalt","id":"way/323823950","name:":"улица Синёва"},"geometry":{"type":"LineString","coordinates":[[29.6377676,46.8413089],[29.6376926,46.841109],[29.6345821,46.8387086]]}},{"type":"Feature","id":"way/355095820","properties":{"highway":"residential","name":"улица Профсоюзов","name:md":"Страда Синдикателор","name:ro":"Strada Sindicatelor","name:ru":"улица Профсоюзов","name:uk":"вулиця Профспілок","source":"Bing","id":"way/355095820","name:":"улица Профсоюзов"},"geometry":{"type":"LineString","coordinates":[[29.6337479,46.8505248],[29.6367109,46.8497898],[29.6398008,46.8490234]]}},{"type":"Feature","id":"way/355095830","properties":{"highway":"residential","name":"улица Профсоюзов","name:md":"Страда Синдикателор","name:ro":"Strada Sindicatelor","name:ru":"улица Профсоюзов","name:uk":"вулиця Профспілок","source":"Bing","id":"way/355095830","name:":"улица Профсоюзов"},"geometry":{"type":"LineString","coordinates":[[29.6398008,46.8490234],[29.6401906,46.8489251],[29.6403924,46.8488823],[29.6405658,46.8488406],[29.6407912,46.8487411],[29.6408343,46.8486683],[29.6409309,46.8485729],[29.6410522,46.8484519],[29.6411032,46.8484022],[29.6411435,46.8483383],[29.641147,46.8482723],[29.641155,46.8481937]]}},{"type":"Feature","id":"way/355095838","properties":{"highway":"residential","maxspeed":"70","name":"улица Гоголя","name:de":"uliza Gogolja","name:en":"Gogolya Street","name:md":"Страда Гогол","name:ro":"Strada Gogol","name:ru":"улица Гоголя","name:uk":"вулиця Гоголя","id":"way/355095838","name:":"улица Гоголя"},"geometry":{"type":"LineString","coordinates":[[29.6306891,46.8486433],[29.6315609,46.8503272],[29.6318853,46.850959],[29.6327445,46.8526133],[29.6328863,46.852887],[29.6334149,46.853908],[29.6337632,46.8545807],[29.6341079,46.8552464],[29.6344466,46.8559006],[29.6346208,46.8562369],[29.6347902,46.8565714],[29.6354202,46.8577924],[29.6357193,46.8583791],[29.6360883,46.8590754],[29.6380642,46.8628865]]}},{"type":"Feature","id":"way/365287667","properties":{"highway":"residential","name":"улица Чехова","name:md":"стр. Чехов","name:ro":"str. Cehov","name:ru":"улица Чехова","name:uk":"вулиця Чехова","id":"way/365287667","name:":"улица Чехова"},"geometry":{"type":"LineString","coordinates":[[29.6378589,46.8543311],[29.6372432,46.8530968],[29.6371909,46.852992]]}},{"type":"Feature","id":"way/372681834","properties":{"highway":"secondary","maxspeed":"50","name":"улица 25 Октября","name:md":"Страда 25 Октомбрие","name:ro":"Strada 25 Octombrie","name:ru":"улица 25 Октября","name:uk":"вулиця 25 Жовтня","oneway":"yes","surface":"asphalt","trolley_wire":"yes","wikidata":"Q4471047","wikipedia":"ru:Улица 25 Октября (Тирасполь)","id":"way/372681834","name:":"улица 25 Октября"},"geometry":{"type":"LineString","coordinates":[[29.6196506,46.8363873],[29.6174317,46.8363984],[29.6152152,46.8362967],[29.6151147,46.8362921],[29.6148913,46.8362779]]}},{"type":"Feature","id":"way/396854600","properties":{"highway":"secondary","maxspeed":"50","name":"улица 25 Октября","name:md":"Страда 25 Октомбрие","name:ro":"Strada 25 Octombrie","name:ru":"улица 25 Октября","name:uk":"вулиця 25 Жовтня","oneway":"yes","surface":"asphalt","trolley_wire":"yes","wikidata":"Q4471047","wikipedia":"ru:Улица 25 Октября (Тирасполь)","id":"way/396854600","name:":"улица 25 Октября"},"geometry":{"type":"LineString","coordinates":[[29.615237,46.8361037],[29.617456,46.8361945],[29.6178199,46.8362348],[29.6189975,46.8363389],[29.6190497,46.8363427],[29.6196506,46.8363873]]}},{"type":"Feature","id":"way/396854601","properties":{"highway":"secondary","maxspeed":"50","name":"улица 25 Октября","name:md":"Страда 25 Октомбрие","name:ro":"Strada 25 Octombrie","name:ru":"улица 25 Октября","name:uk":"вулиця 25 Жовтня","old_name:1792-1881":"Почтовая улица","old_name:1881-1921":"Покровская улица","surface":"asphalt","trolley_wire":"yes","wikidata":"Q4471047","wikipedia":"ru:Улица 25 Октября (Тирасполь)","id":"way/396854601","name:":"улица 25 Октября"},"geometry":{"type":"LineString","coordinates":[[29.6196506,46.8363873],[29.61975,46.8363947],[29.6198418,46.8364009],[29.6199889,46.8364095],[29.6209784,46.8364536],[29.6222438,46.83651],[29.6234314,46.8365655],[29.6240616,46.8365949],[29.6242622,46.8366043],[29.6248005,46.8366264]]}},{"type":"Feature","id":"way/397354736","properties":{"highway":"trunk","lanes":"3","lanes:forward":"2","maxspeed":"60","name":"улица Шевченко","name:de":"uliza Schewtschenko","name:en":"Shevchenko Street","name:md":"Страда Шевченко","name:ro":"Strada Șevcenco","name:ru":"улица Шевченко","name:uk":"вулиця Шевченка","ref":"M4","turn:lanes:forward":"left|through","id":"way/397354736","name:":"улица Шевченко"},"geometry":{"type":"LineString","coordinates":[[29.6136409,46.8464834],[29.6135165,46.8470756],[29.6134164,46.8475518],[29.6133171,46.8479829]]}},{"type":"Feature","id":"way/399176052","properties":{"highway":"primary","maxspeed":"60","name":"улица Карла Либкнехта","name:md":"Страда Карл Либкнехт","name:ro":"Strada Karl Liebknecht","name:ru":"улица Карла Либкнехта","name:uk":"вулиця Карла Лібкнехта","oneway":"no","ref":"R26","surface":"asphalt","wikidata":"Q4472366","wikipedia":"ru:Улица Карла Либкнехта (Тирасполь)","id":"way/399176052","name:":"улица Карла Либкнехта"},"geometry":{"type":"LineString","coordinates":[[29.5904916,46.8387898],[29.5911082,46.8388136],[29.5917313,46.8388376],[29.5923431,46.8388606],[29.5949089,46.8389769],[29.5954103,46.8390025],[29.5956521,46.8390149],[29.597047,46.839086],[29.5983134,46.8391506],[29.5990452,46.8391879],[29.5999324,46.8392332],[29.6005447,46.8392595],[29.6005797,46.8392617],[29.6009772,46.8392865],[29.6012773,46.8393018],[29.6018509,46.839331]]}},{"type":"Feature","id":"way/411400246","properties":{"highway":"tertiary","name":"Объездная дорога","name:md":"Друмул де Околире","name:ro":"Drumul de Ocolire","name:ru":"Объездная дорога","name:uk":"Об'їзна дорога","id":"way/411400246","name:":"Объездная дорога"},"geometry":{"type":"LineString","coordinates":[[29.6066124,46.8523134],[29.6065264,46.8523049],[29.6063421,46.8522863],[29.6030858,46.8519568],[29.6022444,46.8518805],[29.5996266,46.8515937],[29.5985275,46.8514817],[29.5949313,46.8509953],[29.5937331,46.8508332],[29.5914572,46.8505305],[29.5911462,46.8505097]]}},{"type":"Feature","id":"way/411729033","properties":{"highway":"residential","maxspeed":"50","name":"улица Ленина","name:de":"uliza Lenina","name:en":"Lenina Street","name:md":"Страда Ленин","name:ro":"Strada Lenin","name:ru":"улица Ленина","name:uk":"вулиця Леніна","id":"way/411729033","name:":"улица Ленина"},"geometry":{"type":"LineString","coordinates":[[29.6251991,46.831668],[29.6250959,46.8329516],[29.6249982,46.8341668],[29.624902,46.8353581],[29.6248929,46.8354775],[29.6248536,46.8359664],[29.6248318,46.836237],[29.6248102,46.8365063],[29.6248005,46.8366264]]}},{"type":"Feature","id":"way/415351865","properties":{"highway":"primary","maxspeed":"50","name":"улица 9 Января","name:md":"Страда 9 Януарие","name:ro":"str. 9 Ianuarie","name:ru":"улица 9 Января","name:uk":"вулиця 9 Січня","id":"way/415351865","name:":"улица 9 Января"},"geometry":{"type":"LineString","coordinates":[[29.6363783,46.8421383],[29.6331234,46.8424127]]}},{"type":"Feature","id":"way/415351866","properties":{"highway":"residential","maxspeed":"50","name":"улица 9 Января","name:md":"Страда 9 Януарие","name:ro":"str. 9 Ianuarie","name:ru":"улица 9 Января","name:uk":"вулиця 9 Січня","id":"way/415351866","name:":"улица 9 Января"},"geometry":{"type":"LineString","coordinates":[[29.6381117,46.8419937],[29.6380285,46.8420006],[29.637626,46.8420342],[29.6373248,46.8420593],[29.6363783,46.8421383]]}},{"type":"Feature","id":"way/415351867","properties":{"highway":"residential","maxspeed":"50","name":"улица Синёва","name:ro":"Strada Siniov","name:ru":"улица Синёва","name:uk":"вулица Синьова","old_name":"Лучевой проезд","old_name:ru":"Лучевой проезд","oneway":"no","surface":"asphalt","id":"way/415351867","name:":"улица Синёва"},"geometry":{"type":"LineString","coordinates":[[29.6386495,46.8430494],[29.6381117,46.8419937],[29.6377676,46.8413089]]}},{"type":"Feature","id":"way/424068551","properties":{"highway":"tertiary","maxspeed":"50","name":"улица Сакриера","name:ro":"str. Sacrier","name:ru":"улица Сакриера","name:uk":"вулиця Сакрієра","trolley_wire":"yes","id":"way/424068551","name:":"улица Сакриера"},"geometry":{"type":"LineString","coordinates":[[29.6383465,46.8527117],[29.6389752,46.8525597],[29.6407661,46.8521267]]}},{"type":"Feature","id":"way/133143203","properties":{"id":"way/133143203"},"geometry":{"type":"LineString","coordinates":[[29.5661338,46.8360137],[29.5662399,46.836024],[29.5683866,46.8362314],[29.5695572,46.8363445],[29.572924,46.8366713],[29.5730932,46.8366877],[29.5749896,46.8368842],[29.5751345,46.8369],[29.5751913,46.8369063],[29.5759244,46.8369909],[29.5760034,46.837],[29.578211,46.8372548],[29.5784395,46.8372812],[29.5789849,46.8373441],[29.5792393,46.8373735],[29.5803474,46.8375014],[29.5804973,46.8375187],[29.5815451,46.8376622],[29.5826022,46.8377943],[29.5830126,46.837848],[29.5834278,46.8379014],[29.5834689,46.8379067],[29.5837401,46.8379416],[29.5840296,46.8379763],[29.5842394,46.8380057],[29.5851634,46.8381244],[29.5856681,46.8381892],[29.5862737,46.838267],[29.5864449,46.8382917],[29.5871056,46.8383739],[29.5879929,46.8384879],[29.5886171,46.8385681],[29.5891302,46.838634],[29.5891971,46.8386426],[29.5900006,46.8387345],[29.5901638,46.8387532],[29.59033,46.8387722],[29.5904916,46.8387898]]}},{"type":"Feature","id":"way/25480900","properties":{"id":"way/25480900"},"geometry":{"type":"LineString","coordinates":[[29.5484305,46.8369345],[29.5489114,46.8369382],[29.5515452,46.8368724],[29.5519794,46.8368615],[29.5527552,46.8368455],[29.5545662,46.8368083],[29.5550289,46.8367757],[29.5557354,46.836726],[29.5565236,46.836646],[29.5569419,46.8366058],[29.5576017,46.836537],[29.5595847,46.8363303],[29.5605205,46.8362273],[29.5611716,46.8361345],[29.5614456,46.836101]]}},{"type":"Feature","id":"way/133260948","properties":{"id":"way/133260948"},"geometry":{"type":"LineString","coordinates":[[29.5614456,46.836101],[29.562335,46.8359945],[29.5629599,46.8359365],[29.563697,46.8358912],[29.5641248,46.8358789],[29.5645932,46.8358951],[29.5651824,46.8359349],[29.5661338,46.8360137]]}},{"type":"Feature","id":"way/25669885","properties":{"id":"way/25669885"},"geometry":{"type":"LineString","coordinates":[[29.5964747,46.8353429],[29.5967022,46.8353425],[29.5977359,46.8353409]]}},{"type":"Feature","id":"way/133137747","properties":{"id":"way/133137747"},"geometry":{"type":"LineString","coordinates":[[29.5977359,46.8353409],[29.5972055,46.8353962],[29.5967338,46.8354712]]}},{"type":"Feature","id":"node/1465573418","properties":{"highway":"bus_stop","name":"Элеватор","name:ru":"Элеватор","name:uk":"Елеватор","id":"node/1465573418","name:":"Элеватор"},"geometry":{"type":"Point","coordinates":[29.6237994,46.8561546]}},{"type":"Feature","id":"node/1465573551","properties":{"highway":"bus_stop","name":"Элеватор","name:ru":"Элеватор","name:uk":"Елеватор","id":"node/1465573551","name:":"Элеватор"},"geometry":{"type":"Point","coordinates":[29.6239671,46.8562927]}},{"type":"Feature","id":"node/1938592157","properties":{"int_name":"Tiraspol","name":"Тирасполь","name:de":"Tiraspol","name:en":"Tiraspol","name:hu":"Tiraszpol","name:md":"Тираспол","name:ro":"Tiraspol","name:ru":"Тирасполь","name:uk":"Тирасполь","operator":"Приднестровская железная дорога","railway":"station","railway:ref:DB":"ZMT","wikidata":"Q4178933","wikipedia":"ru:Тирасполь (станция)","id":"node/1938592157","name:":"Тирасполь"},"geometry":{"type":"Point","coordinates":[29.6296238,46.8474938]}},{"type":"Feature","id":"node/2322067257","properties":{"name":"Элеватор","id":"node/2322067257","name:":"Элеватор"},"geometry":{"type":"Point","coordinates":[29.6235101,46.855674]}},{"type":"Feature","id":"node/2324406578","properties":{"name":"Склад посуды","id":"node/2324406578","name:":"Склад посуды"},"geometry":{"type":"Point","coordinates":[29.6258667,46.8468354]}},{"type":"Feature","id":"node/2324556718","properties":{"addr:housenumber":"110","name":"Тирасполь","name:md":"Тираспол","name:ro":"Tiraspol","name:ru":"Тирасполь","shop":"mall","id":"node/2324556718","name:":"Тирасполь"},"geometry":{"type":"Point","coordinates":[29.6237765,46.8362989]}},{"type":"Feature","id":"node/2324607011","properties":{"name":"Квинт","name:ro":"Kvint","shop":"alcohol","id":"node/2324607011","name:":"Квинт"},"geometry":{"type":"Point","coordinates":[29.6298328,46.8463557]}},{"type":"Feature","id":"node/2336353966","properties":{"name":"Котельная","name:ru":"Котельная","name:uk":"Котельня","id":"node/2336353966","name:":"Котельная"},"geometry":{"type":"Point","coordinates":[29.6280899,46.8306648]}},{"type":"Feature","id":"node/2339172677","properties":{"admin_level":"2","capital":"no","int_name":"Tiraspol","is_in":"Moldova","is_in:continent":"Europe","is_in:country":"Moldova","is_in:country_code":"MD","name":"Тирасполь","name:ar":"تيراسبول","name:az":"Tiraspol","name:be":"Ціраспаль","name:ca":"Tiraspol","name:de":"Tiraspol","name:el":"Τιράσπολ","name:en":"Tiraspol","name:eo":"Tiraspolo","name:es":"Tiráspol","name:fa":"تیراسپل","name:fr":"Tiraspol","name:gag":"Tiraspol","name:gl":"Tiráspol","name:he":"טירספול","name:hsb":"Tiraspol","name:hu":"Tiraszpol","name:hy":"Տիրասպոլ","name:ja":"ティラスポリ","name:ka":"ტირასპოლი","name:ko":"티라스폴","name:lt":"Tiraspolis","name:lv":"Tiraspole","name:md":"Тираспол","name:mo":"Тираспол","name:pl":"Tyraspol","name:ro":"Tiraspol","name:ru":"Тирасполь","name:ta":"திரசுப்போல்","name:th":"ตีรัสปอล","name:tr":"Tiraspol","name:uk":"Тирасполь","name:ur":"تیراسپول","name:zh":"蒂拉斯波尔","place":"city","population":"135700","wikidata":"Q132572","wikipedia":"ru:Тирасполь","wikipedia:de":"Tiraspol","id":"node/2339172677","name:":"Тирасполь"},"geometry":{"type":"Point","coordinates":[29.6349762,46.8516737]}},{"type":"Feature","id":"node/2989159625","properties":{"name":"Южный","name:de":"Juschny","name:en":"Yuzhny","name:ro":"Cartierul de Sud","name:ru":"Южный","name:uk":"Південний","place":"suburb","id":"node/2989159625","name:":"Южный"},"geometry":{"type":"Point","coordinates":[29.6251496,46.8305588]}},{"type":"Feature","id":"node/2989185985","properties":{"name":"Центр","name:de":"Zentrum","name:en":"Centre","name:md":"Чентру","name:ro":"Centru","name:ru":"Центр","name:uk":"Центр","place":"suburb","id":"node/2989185985","name:":"Центр"},"geometry":{"type":"Point","coordinates":[29.6238695,46.838725]}},{"type":"Feature","id":"node/3528807325","properties":{"addr:city":"Тирасполь","addr:housenumber":"47","addr:postcode":"3300","addr:street":"улица Ларионова","name":"Южный","name:en":"Youzhny","name:ru":"Южный","opening_hours":"07:00-22:00","shop":"convenience","id":"node/3528807325","name:":"Южный"},"geometry":{"type":"Point","coordinates":[29.6316013,46.8294564]}},{"type":"Feature","id":"node/3603172130","properties":{"name":"Красные Казармы","name:md":"Казарма Рошие","name:ro":"Cazarma Roșie","name:ru":"Красные Казармы","name:uk":"Червоні Казарми","place":"suburb","id":"node/3603172130","name:":"Красные Казармы"},"geometry":{"type":"Point","coordinates":[29.6094593,46.8460393]}},{"type":"Feature","id":"node/3680866699","properties":{"name":"Площадь Суворова","name:de":"Suworow-Platz","name:en":"Suvorov Square","name:md":"Пяца Суворов","name:ro":"Piața Suvorov","name:ru":"Площадь Суворова","name:uk":"площа Суворова","place":"neighbourhood","id":"node/3680866699","name:":"Площадь Суворова"},"geometry":{"type":"Point","coordinates":[29.6112261,46.8362901]}}]}